{
    "links": {
        "self": "http://www.neowsapp.com/rest/v1/neo/3789483?api_key=iIulBulltgU6a56xZRHN4H3l9WmuAYTsLGpBGhQ2"
    },
    "id": "3789483",
    "neo_reference_id": "3789483",
    "name": "(2017 WT1)",
    "designation": "2017 WT1",
    "nasa_jpl_url": "http://ssd.jpl.nasa.gov/sbdb.cgi?sstr=3789483",
    "absolute_magnitude_h": 24.9,
    "estimated_diameter": {
        "kilometers": {
            "estimated_diameter_min": 0.0278326768,
            "estimated_diameter_max": 0.0622357573
        },
        "meters": {
            "estimated_diameter_min": 27.8326768072,
            "estimated_diameter_max": 62.2357573367
        },
        "miles": {
            "estimated_diameter_min": 0.0172944182,
            "estimated_diameter_max": 0.0386714948
        },
        "feet": {
            "estimated_diameter_min": 91.3145593761,
            "estimated_diameter_max": 204.1855621004
        }
    },
    "is_potentially_hazardous_asteroid": false,
    "close_approach_data": [
        {
            "close_approach_date": "2017-11-18",
            "close_approach_date_full": "2017-Nov-18 22:15",
            "epoch_date_close_approach": 1511043300000,
            "relative_velocity": {
                "kilometers_per_second": "9.8529243629",
                "kilometers_per_hour": "35470.5277064443",
                "miles_per_hour": "22040.0065073737"
            },
            "miss_distance": {
                "astronomical": "0.0380973531",
                "lunar": "14.8198703559",
                "kilometers": "5699282.876397897",
                "miles": "3541370.1638770986"
            },
            "orbiting_body": "Earth"
        }
    ],
    "orbital_data": {
        "orbit_id": "10",
        "orbit_determination_date": "2017-12-18 08:58:14",
        "first_observation_date": "2017-11-19",
        "last_observation_date": "2017-12-17",
        "data_arc_in_days": 28,
        "observations_used": 82,
        "orbit_uncertainty": "7",
        "minimum_orbit_intersection": ".00496324",
        "jupiter_tisserand_invariant": "3.707",
        "epoch_osculation": "2459000.5",
        "eccentricity": ".5124975227214424",
        "semi_major_axis": "1.961108230461825",
        "inclination": "1.297622840828784",
        "ascending_node_longitude": "60.71751717851099",
        "orbital_period": "1003.115105680996",
        "perihelion_distance": ".9560451205615081",
        "perihelion_argument": "321.1014672063747",
        "aphelion_distance": "2.966171340362142",
        "perihelion_time": "2459052.922570850416",
        "mean_anomaly": "341.1864805950282",
        "mean_motion": ".3588820445043569",
        "equinox": "J2000",
        "orbit_class": {
            "orbit_class_type": "APO",
            "orbit_class_description": "Near-Earth asteroid orbits which cross the Earth’s orbit similar to that of 1862 Apollo",
            "orbit_class_range": "a (semi-major axis) > 1.0 AU; q (perihelion) < 1.017 AU"
        }
    },
    "is_sentry_object": false
}